[{"OBJECT_NAME":"STARLINK-35724","OBJECT_ID":"2025-247Q","EPOCH":"2026-03-09T15:33:46.221696","MEAN_MOTION":15.30175525,"ECCENTRICITY":0.00011363,"INCLINATION":53.1588,"RA_OF_ASC_NODE":191.9012,"ARG_OF_PERICENTER":87.934,"MEAN_ANOMALY":272.1791,"EPHEMERIS_TYPE":0,"CLASSIFICATION_TYPE":"U","NORAD_CAT_ID":66279,"ELEMENT_SET_NO":999,"REV_AT_EPOCH":2102,"BSTAR":0.00016971077,"MEAN_MOTION_DOT":4.667e-5,"MEAN_MOTION_DDOT":0},{"OBJECT_NAME":"COSMOS 1328","OBJECT_ID":"1981-117A","EPOCH":"2026-03-09T17:51:53.113536","MEAN_MOTION":15.33902077,"ECCENTRICITY":0.00108717,"INCLINATION":82.4939,"RA_OF_ASC_NODE":350.453,"ARG_OF_PERICENTER":167.9725,"MEAN_ANOMALY":192.1779,"EPHEMERIS_TYPE":0,"CLASSIFICATION_TYPE":"U","NORAD_CAT_ID":12987,"ELEMENT_SET_NO":999,"REV_AT_EPOCH":41406,"BSTAR":0.00040501644,"MEAN_MOTION_DOT":0.00013342,"MEAN_MOTION_DDOT":0}]
